{
  "norad_id": 40549,
  "name": "BEIDOU-3S IGSO-1S",
  "history": [
    {
      "epoch": "2026-03-23T06:58:51.098016",
      "apogee_km": 35940.3162560156,
      "perigee_km": 35634.52320549283,
      "latitude_deg": -49.34368368657348,
      "longitude_deg": -57.17655775998719,
      "semi_major_axis_km": 42165.556730754215,
      "eccentricity": 0.0036261,
      "inclination_deg": 49.3559,
      "raan_deg": 296.4949,
      "arg_perigee_deg": 190.1236,
      "mean_anomaly_deg": 255.118,
      "mean_motion_rev_day": 1.00268843
    }
  ]
}